start=new Date('2021-12-02T00:00:00.000Z').valueOf();
sats=[{"MEAN_ANOMALY":"271.2051","MEAN_MOTION_DDOT":"0.0000000000000","REF_FRAME":"TEME","EPOCH":"2021-12-01T11:53:31.229376","TLE_LINE2":"2 45237  53.0539 166.1247 0002065  88.9175 271.2051 15.06394995100398","MEAN_MOTION_DOT":"-0.00000814","ARG_OF_PERICENTER":"88.9175","ECCENTRICITY":"0.00020650","BSTAR":"-0.00003574200000","RA_OF_ASC_NODE":"166.1247","ELEMENT_SET_NO":"999","SITE":"AFETR","TLE_LINE1":"1 45237U 20012BM  21335.49550034 -.00000814  00000-0 -35742-4 0  9990","COUNTRY_CODE":"US","NORAD_CAT_ID":"45237","MEAN_MOTION":"15.06394995","INCLINATION":"53.0539","CENTER_NAME":"EARTH","LAUNCH_DATE":"2020-02-17","CLASSIFICATION_TYPE":"U","TIME_SYSTEM":"UTC","EPHEMERIS_TYPE":"0","OBJECT_NAME":"STARLINK-1270","OBJECT_TYPE":"PAYLOAD","MEAN_ELEMENT_THEORY":"SGP4","APOAPSIS":"548.659","OBJECT_ID":"2020-012BM","GP_ID":"190857898","PERIAPSIS":"545.799","REV_AT_EPOCH":"10039","RCS_SIZE":"LARGE","DECAY_DATE":null,"FILE":"3229140","SEMIMAJOR_AXIS":"6925.364","PERIOD":"95.592"},{"MEAN_MOTION_DDOT":"0.0000000000000","MEAN_ANOMALY":"304.0122","MEAN_MOTION_DOT":"0.00000187","TLE_LINE2":"2 45360  53.0544 295.7037 0001821  56.1040 304.0122 15.06404514 95143","EPOCH":"2021-12-01T14:04:51.949632","REF_FRAME":"TEME","BSTAR":"0.00003148700000","ARG_OF_PERICENTER":"56.1040","ECCENTRICITY":"0.00018210","COUNTRY_CODE":"US","TLE_LINE1":"1 45360U 20019A   21335.58671238  .00000187  00000-0  31487-4 0  9997","SITE":"AFETR","ELEMENT_SET_NO":"999","RA_OF_ASC_NODE":"295.7037","INCLINATION":"53.0544","NORAD_CAT_ID":"45360","MEAN_MOTION":"15.06404514","EPHEMERIS_TYPE":"0","TIME_SYSTEM":"UTC","CLASSIFICATION_TYPE":"U","LAUNCH_DATE":"2020-03-18","CENTER_NAME":"EARTH","OBJECT_ID":"2020-019A","MEAN_ELEMENT_THEORY":"SGP4","APOAPSIS":"548.461","OBJECT_TYPE":"PAYLOAD","OBJECT_NAME":"STARLINK-1279","DECAY_DATE":null,"FILE":"3229348","SEMIMAJOR_AXIS":"6925.335","PERIOD":"95.592","REV_AT_EPOCH":"9514","RCS_SIZE":"LARGE","PERIAPSIS":"545.939","GP_ID":"190866701"},{"BSTAR":"-0.00005549500000","ARG_OF_PERICENTER":"55.0814","ECCENTRICITY":"0.00018260","SITE":"AFETR","COUNTRY_CODE":"US","TLE_LINE1":"1 45361U 20019B   21335.77378803 -.00001108  00000-0 -55495-4 0  9992","RA_OF_ASC_NODE":"304.8646","ELEMENT_SET_NO":"999","MEAN_ANOMALY":"305.0346","MEAN_MOTION_DDOT":"0.0000000000000","MEAN_MOTION_DOT":"-0.00001108","REF_FRAME":"TEME","TLE_LINE2":"2 45361  53.0554 304.8646 0001826  55.0814 305.0346 15.06392017 95047","EPOCH":"2021-12-01T18:34:15.285792","OBJECT_ID":"2020-019B","OBJECT_NAME":"STARLINK-1301","MEAN_ELEMENT_THEORY":"SGP4","APOAPSIS":"548.503","OBJECT_TYPE":"PAYLOAD","FILE":"3229368","DECAY_DATE":null,"SEMIMAJOR_AXIS":"6925.373","PERIOD":"95.593","RCS_SIZE":"LARGE","REV_AT_EPOCH":"9504","GP_ID":"190866754","PERIAPSIS":"545.973","INCLINATION":"53.0554","NORAD_CAT_ID":"45361","MEAN_MOTION":"15.06392017","EPHEMERIS_TYPE":"0","CENTER_NAME":"EARTH","CLASSIFICATION_TYPE":"U","TIME_SYSTEM":"UTC","LAUNCH_DATE":"2020-03-18"},{"TLE_LINE2":"2 45362  53.0556 324.9559 0001581  56.4741 303.6399 15.06396994 94766","EPOCH":"2021-12-01T18:05:03.340896","REF_FRAME":"TEME","MEAN_MOTION_DOT":"0.00000548","MEAN_MOTION_DDOT":"0.0000000000000","MEAN_ANOMALY":"303.6399","ELEMENT_SET_NO":"999","RA_OF_ASC_NODE":"324.9559","COUNTRY_CODE":"US","TLE_LINE1":"1 45362U 20019C   21335.75351089  .00000548  00000-0  55712-4 0  9995","SITE":"AFETR","ARG_OF_PERICENTER":"56.4741","ECCENTRICITY":"0.00015810","BSTAR":"0.00005571200000","TIME_SYSTEM":"UTC","CLASSIFICATION_TYPE":"U","LAUNCH_DATE":"2020-03-18","CENTER_NAME":"EARTH","EPHEMERIS_TYPE":"0","MEAN_MOTION":"15.06396994","NORAD_CAT_ID":"45362","INCLINATION":"53.0556","PERIAPSIS":"546.128","GP_ID":"190867097","FILE":"3229368","SEMIMAJOR_AXIS":"6925.358","DECAY_DATE":null,"PERIOD":"95.592","REV_AT_EPOCH":"9476","RCS_SIZE":"LARGE","MEAN_ELEMENT_THEORY":"SGP4","APOAPSIS":"548.318","OBJECT_TYPE":"PAYLOAD","OBJECT_NAME":"STARLINK-1306","OBJECT_ID":"2020-019C"},{"SITE":"AFETR","COUNTRY_CODE":"US","TLE_LINE1":"1 45364U 20019E   21335.31764257 -.00001087  00000-0 -54037-4 0  9994","RA_OF_ASC_NODE":"296.9163","ELEMENT_SET_NO":"999","BSTAR":"-0.00005403700000","ARG_OF_PERICENTER":"73.6250","ECCENTRICITY":"0.00021220","MEAN_MOTION_DOT":"-0.00001087","REF_FRAME":"TEME","EPOCH":"2021-12-01T07:37:24.318048","TLE_LINE2":"2 45364  53.0551 296.9163 0002122  73.6250 286.4972 15.06400879 95102","MEAN_ANOMALY":"286.4972","MEAN_MOTION_DDOT":"0.0000000000000","SEMIMAJOR_AXIS":"6925.346","FILE":"3229140","DECAY_DATE":null,"PERIOD":"95.592","REV_AT_EPOCH":"9510","RCS_SIZE":"LARGE","GP_ID":"190858663","PERIAPSIS":"545.741","OBJECT_ID":"2020-019E","OBJECT_NAME":"STARLINK-1313","APOAPSIS":"548.680","MEAN_ELEMENT_THEORY":"SGP4","OBJECT_TYPE":"PAYLOAD","EPHEMERIS_TYPE":"0","CENTER_NAME":"EARTH","CLASSIFICATION_TYPE":"U","TIME_SYSTEM":"UTC","LAUNCH_DATE":"2020-03-18","INCLINATION":"53.0551","NORAD_CAT_ID":"45364","MEAN_MOTION":"15.06400879"},{"NORAD_CAT_ID":"45365","MEAN_MOTION":"15.05587154","INCLINATION":"53.0027","CLASSIFICATION_TYPE":"U","TIME_SYSTEM":"UTC","LAUNCH_DATE":"2020-03-18","CENTER_NAME":"EARTH","EPHEMERIS_TYPE":"0","APOAPSIS":"550.934","MEAN_ELEMENT_THEORY":"SGP4","OBJECT_TYPE":"PAYLOAD","OBJECT_NAME":"STARLINK-1317","OBJECT_ID":"2020-019F","PERIAPSIS":"548.478","GP_ID":"190867116","SEMIMAJOR_AXIS":"6927.841","FILE":"3229353","DECAY_DATE":null,"PERIOD":"95.644","REV_AT_EPOCH":"9501","RCS_SIZE":"LARGE","MEAN_MOTION_DDOT":"0.0000000000000","MEAN_ANOMALY":"290.0464","EPOCH":"2021-12-01T19:35:05.453376","TLE_LINE2":"2 45365  53.0027 304.6810 0001772  70.0715 290.0464 15.05587154 95012","REF_FRAME":"TEME","MEAN_MOTION_DOT":"0.00000613","ECCENTRICITY":"0.00017720","ARG_OF_PERICENTER":"70.0715","BSTAR":"0.00006121600000","RA_OF_ASC_NODE":"304.6810","ELEMENT_SET_NO":"999","COUNTRY_CODE":"US","TLE_LINE1":"1 45365U 20019F   21335.81603534  .00000613  00000-0  61216-4 0  9999","SITE":"AFETR"},{"TLE_LINE2":"2 45366  53.0553 327.4001 0001812  61.6886 298.4285 15.06395600 94681","EPOCH":"2021-12-01T04:59:30.318720","REF_FRAME":"TEME","MEAN_MOTION_DOT":"0.00000237","MEAN_MOTION_DDOT":"0.0000000000000","MEAN_ANOMALY":"298.4285","RA_OF_ASC_NODE":"327.4001","ELEMENT_SET_NO":"999","COUNTRY_CODE":"US","TLE_LINE1":"1 45366U 20019G   21335.20798980  .00000237  00000-0  34808-4 0  9992","SITE":"AFETR","ECCENTRICITY":"0.00018120","ARG_OF_PERICENTER":"61.6886","BSTAR":"0.00003480800000","TIME_SYSTEM":"UTC","CLASSIFICATION_TYPE":"U","LAUNCH_DATE":"2020-03-18","CENTER_NAME":"EARTH","EPHEMERIS_TYPE":"0","MEAN_MOTION":"15.06395600","NORAD_CAT_ID":"45366","INCLINATION":"53.0553","PERIAPSIS":"545.972","GP_ID":"190827708","DECAY_DATE":null,"FILE":"3228651","PERIOD":"95.592","SEMIMAJOR_AXIS":"6925.362","REV_AT_EPOCH":"9468","RCS_SIZE":"LARGE","MEAN_ELEMENT_THEORY":"SGP4","APOAPSIS":"548.482","OBJECT_TYPE":"PAYLOAD","OBJECT_NAME":"STARLINK-1262","OBJECT_ID":"2020-019G"},{"EPHEMERIS_TYPE":"0","CENTER_NAME":"EARTH","LAUNCH_DATE":"2020-03-18","CLASSIFICATION_TYPE":"U","TIME_SYSTEM":"UTC","INCLINATION":"53.0550","NORAD_CAT_ID":"45367","MEAN_MOTION":"15.06406517","REV_AT_EPOCH":"9472","RCS_SIZE":"LARGE","FILE":"3229140","PERIOD":"95.592","DECAY_DATE":null,"SEMIMAJOR_AXIS":"6925.329","GP_ID":"190858412","PERIAPSIS":"545.885","OBJECT_ID":"2020-019H","OBJECT_NAME":"STARLINK-1273","OBJECT_TYPE":"PAYLOAD","APOAPSIS":"548.502","MEAN_ELEMENT_THEORY":"SGP4","MEAN_MOTION_DOT":"0.00002336","REF_FRAME":"TEME","TLE_LINE2":"2 45367  53.0550 326.1242 0001889  58.2838 301.8335 15.06406517 94725","EPOCH":"2021-12-01T11:53:29.681088","MEAN_ANOMALY":"301.8335","MEAN_MOTION_DDOT":"0.0000000000000","SITE":"AFETR","TLE_LINE1":"1 45367U 20019H   21335.49548242  .00002336  00000-0  17568-3 0  9993","COUNTRY_CODE":"US","ELEMENT_SET_NO":"999","RA_OF_ASC_NODE":"326.1242","BSTAR":"0.00017568000000","ARG_OF_PERICENTER":"58.2838","ECCENTRICITY":"0.00018890"},{"MEAN_ELEMENT_THEORY":"SGP4","APOAPSIS":"548.917","OBJECT_TYPE":"PAYLOAD","OBJECT_NAME":"STARLINK-1276","OBJECT_ID":"2020-019J","PERIAPSIS":"545.481","GP_ID":"190859163","DECAY_DATE":null,"FILE":"3229140","PERIOD":"95.592","SEMIMAJOR_AXIS":"6925.334","REV_AT_EPOCH":"9471","RCS_SIZE":"LARGE","NORAD_CAT_ID":"45368","MEAN_MOTION":"15.06404758","INCLINATION":"53.0539","TIME_SYSTEM":"UTC","CLASSIFICATION_TYPE":"U","LAUNCH_DATE":"2020-03-18","CENTER_NAME":"EARTH","EPHEMERIS_TYPE":"0","ARG_OF_PERICENTER":"45.6691","ECCENTRICITY":"0.00024810","BSTAR":"0.00009935500000","ELEMENT_SET_NO":"999","RA_OF_ASC_NODE":"326.5442","COUNTRY_CODE":"US","TLE_LINE1":"1 45368U 20019J   21335.39965663  .00001198  00000-0  99355-4 0  9993","SITE":"AFETR","MEAN_MOTION_DDOT":"0.0000000000000","MEAN_ANOMALY":"314.4501","EPOCH":"2021-12-01T09:35:30.332832","TLE_LINE2":"2 45368  53.0539 326.5442 0002481  45.6691 314.4501 15.06404758 94714","REF_FRAME":"TEME","MEAN_MOTION_DOT":"0.00001198"},{"OBJECT_ID":"2020-019K","OBJECT_NAME":"STARLINK-1277","MEAN_ELEMENT_THEORY":"SGP4","APOAPSIS":"548.338","OBJECT_TYPE":"PAYLOAD","DECAY_DATE":null,"FILE":"3229140","SEMIMAJOR_AXIS":"6925.354","PERIOD":"95.592","REV_AT_EPOCH":"9471","RCS_SIZE":"LARGE","GP_ID":"190859414","PERIAPSIS":"546.099","INCLINATION":"53.0551","NORAD_CAT_ID":"45369","MEAN_MOTION":"15.06398352","EPHEMERIS_TYPE":"0","CENTER_NAME":"EARTH","CLASSIFICATION_TYPE":"U","TIME_SYSTEM":"UTC","LAUNCH_DATE":"2020-03-18","BSTAR":"0.00008912400000","ARG_OF_PERICENTER":"64.2089","ECCENTRICITY":"0.00016160","SITE":"AFETR","COUNTRY_CODE":"US","TLE_LINE1":"1 45369U 20019K   21335.39871347  .00001046  00000-0  89124-4 0  9994","ELEMENT_SET_NO":"999","RA_OF_ASC_NODE":"326.5554","MEAN_ANOMALY":"295.9067","MEAN_MOTION_DDOT":"0.0000000000000","MEAN_MOTION_DOT":"0.00001046","REF_FRAME":"TEME","EPOCH":"2021-12-01T09:34:08.843808","TLE_LINE2":"2 45369  53.0551 326.5554 0001616  64.2089 295.9067 15.06398352 94712"}];
